{"type": "FeatureCollection", "features": [ {"type": "Feature", "properties": {"norad_id": 39586, "name": "COSMOS 2251 DEB", "group": "cosmos-2251-debris", "lat": -43.19946301174955, "lon": -143.31597699152374, "alt_km": 783.2046975304529, "timestamp": "2025-12-10T11:33:53.782238+00:00", "meta": {"OBJECT_NAME": "COSMOS 2251 DEB", "OBJECT_ID": "1993-036BUR", "EPOCH": "2025-12-04T00:26:07.876608", "MEAN_MOTION": 14.21195867, "ECCENTRICITY": 0.01003221, "INCLINATION": 74.0095, "RA_OF_ASC_NODE": 243.9042, "ARG_OF_PERICENTER": 20.3845, "MEAN_ANOMALY": 357.5964, "EPHEMERIS_TYPE": 0, "CLASSIFICATION_TYPE": "U", "NORAD_CAT_ID": 39586, "ELEMENT_SET_NO": 999, "REV_AT_EPOCH": 60848, "BSTAR": 0.00088936605, "MEAN_MOTION_DOT": 2.011e-05, "MEAN_MOTION_DDOT": 0}, "tle": {"line1": "1 39586U 93036BUR 25338.01814672  .00002011  00000+0  88937-3 0  9993", "line2": "2 39586  74.0095 243.9042 0100322  20.3845 357.5964 14.21195867608481"}}, "geometry": {"type": "Point", "coordinates": [-143.31597699152374, -43.19946301174955]}}, {"type": "Feature", "properties": {"norad_id": 39591, "name": "COSMOS 2251 DEB", "group": "cosmos-2251-debris", "lat": 35.397919074802346, "lon": -97.29983887551944, "alt_km": 732.0958903685623, "timestamp": "2025-12-10T11:33:53.782249+00:00", "meta": {"OBJECT_NAME": "COSMOS 2251 DEB", "OBJECT_ID": "1993-036BUW", "EPOCH": "2025-12-07T12:37:20.058240", "MEAN_MOTION": 14.41797082, "ECCENTRICITY": 0.00291403, "INCLINATION": 74.0183, "RA_OF_ASC_NODE": 256.4312, "ARG_OF_PERICENTER": 11.534, "MEAN_ANOMALY": 168.8103, "EPHEMERIS_TYPE": 0, "CLASSIFICATION_TYPE": "U", "NORAD_CAT_ID": 39591, "ELEMENT_SET_NO": 999, "REV_AT_EPOCH": 61701, "BSTAR": 0.00067199948, "MEAN_MOTION_DOT": 2.18e-05, "MEAN_MOTION_DDOT": 0}, "tle": {"line1": "1 39591U 93036BUW 25341.52592660  .00002180  00000+0  67200-3 0  9996", "line2": "2 39591  74.0183 256.4312 0029140  11.5340 168.8103 14.41797082617010"}}, "geometry": {"type": "Point", "coordinates": [-97.29983887551944, 35.397919074802346]}}, {"type": "Feature", "properties": {"norad_id": 40218, "name": "COSMOS 2251 DEB", "group": "cosmos-2251-debris", "lat": -62.617619980703516, "lon": -140.54545464351867, "alt_km": 751.6868034377476, "timestamp": "2025-12-10T11:33:53.782258+00:00", "meta": {"OBJECT_NAME": "COSMOS 2251 DEB", "OBJECT_ID": "1993-036BUX", "EPOCH": "2025-12-02T02:20:48.132384", "MEAN_MOTION": 14.41546301, "ECCENTRICITY": 0.00163619, "INCLINATION": 74.0309, "RA_OF_ASC_NODE": 268.5457, "ARG_OF_PERICENTER": 353.795, "MEAN_ANOMALY": 6.3, "EPHEMERIS_TYPE": 0, "CLASSIFICATION_TYPE": "U", "NORAD_CAT_ID": 40218, "ELEMENT_SET_NO": 999, "REV_AT_EPOCH": 58708, "BSTAR": 0.00047133972, "MEAN_MOTION_DOT": 1.508e-05, "MEAN_MOTION_DDOT": 0}, "tle": {"line1": "1 40218U 93036BUX 25336.09777931  .00001508  00000+0  47134-3 0  9993", "line2": "2 40218  74.0309 268.5457 0016361 353.7950   6.3000 14.41546301587082"}}, "geometry": {"type": "Point", "coordinates": [-140.54545464351867, -62.617619980703516]}}, {"type": "Feature", "properties": {"norad_id": 40223, "name": "COSMOS 2251 DEB", "group": "cosmos-2251-debris", "lat": 56.40836318825457, "lon": -112.3630684355906, "alt_km": 561.7729122508363, "timestamp": "2025-12-10T11:33:53.782268+00:00", "meta": {"OBJECT_NAME": "COSMOS 2251 DEB", "OBJECT_ID": "1993-036BVC", "EPOCH": "2025-12-09T18:07:42.466368", "MEAN_MOTION": 15.03022775, "ECCENTRICITY": 0.001498, "INCLINATION": 73.9385, "RA_OF_ASC_NODE": 94.8358, "ARG_OF_PERICENTER": 294.8091, "MEAN_ANOMALY": 215.4539, "EPHEMERIS_TYPE": 0, "CLASSIFICATION_TYPE": "U", "NORAD_CAT_ID": 40223, "ELEMENT_SET_NO": 999, "REV_AT_EPOCH": 59329, "BSTAR": 0.0062016, "MEAN_MOTION_DOT": 0.00084686, "MEAN_MOTION_DDOT": 0}, "tle": {"line1": "1 40223U 93036BVC 25343.75535262  .00084686  00000+0  62016-2 0  9992", "line2": "2 40223  73.9385  94.8358 0014980 294.8091 215.4539 15.03022775593299"}}, "geometry": {"type": "Point", "coordinates": [-112.3630684355906, 56.40836318825457]}}, {"type": "Feature", "properties": {"norad_id": 40228, "name": "COSMOS 2251 DEB", "group": "cosmos-2251-debris", "lat": -7.581860474922367, "lon": 86.88304514371556, "alt_km": 771.5312410866718, "timestamp": "2025-12-10T11:33:53.782278+00:00", "meta": {"OBJECT_NAME": "COSMOS 2251 DEB", "OBJECT_ID": "1993-036BVH", "EPOCH": "2025-12-07T13:33:16.737984", "MEAN_MOTION": 14.40975918, "ECCENTRICITY": 0.00238751, "INCLINATION": 74.0543, "RA_OF_ASC_NODE": 270.0925, "ARG_OF_PERICENTER": 332.416, "MEAN_ANOMALY": 209.1246, "EPHEMERIS_TYPE": 0, "CLASSIFICATION_TYPE": "U", "NORAD_CAT_ID": 40228, "ELEMENT_SET_NO": 999, "REV_AT_EPOCH": 58846, "BSTAR": 0.0006394623, "MEAN_MOTION_DOT": 2.035e-05, "MEAN_MOTION_DDOT": 0}, "tle": {"line1": "1 40228U 93036BVH 25341.56477706  .00002035  00000+0  63946-3 0  9994", "line2": "2 40228  74.0543 270.0925 0023875 332.4160 209.1246 14.40975918588463"}}, "geometry": {"type": "Point", "coordinates": [86.88304514371556, -7.581860474922367]}}, {"type": "Feature", "properties": {"norad_id": 40230, "name": "COSMOS 2251 DEB", "group": "cosmos-2251-debris", "lat": -69.48611299160613, "lon": -178.74216120965528, "alt_km": 721.298835525864, "timestamp": "2025-12-10T11:33:53.782288+00:00", "meta": {"OBJECT_NAME": "COSMOS 2251 DEB", "OBJECT_ID": "1993-036BVK", "EPOCH": "2025-12-05T11:49:12.794880", "MEAN_MOTION": 14.49259606, "ECCENTRICITY": 0.00191133, "INCLINATION": 74.0458, "RA_OF_ASC_NODE": 240.4744, "ARG_OF_PERICENTER": 299.5216, "MEAN_ANOMALY": 242.5097, "EPHEMERIS_TYPE": 0, "CLASSIFICATION_TYPE": "U", "NORAD_CAT_ID": 40230, "ELEMENT_SET_NO": 999, "REV_AT_EPOCH": 58866, "BSTAR": 0.0014637297, "MEAN_MOTION_DOT": 5.571e-05, "MEAN_MOTION_DDOT": 0}, "tle": {"line1": "1 40230U 93036BVK 25339.49250920  .00005571  00000+0  14637-2 0  9993", "line2": "2 40230  74.0458 240.4744 0019113 299.5216 242.5097 14.49259606588661"}}, "geometry": {"type": "Point", "coordinates": [-178.74216120965528, -69.48611299160613]}}, {"type": "Feature", "properties": {"norad_id": 40233, "name": "COSMOS 2251 DEB", "group": "cosmos-2251-debris", "lat": 31.480715920781563, "lon": 117.59269186307982, "alt_km": 724.1953551732968, "timestamp": "2025-12-10T11:33:53.782299+00:00", "meta": {"OBJECT_NAME": "COSMOS 2251 DEB", "OBJECT_ID": "1993-036BVN", "EPOCH": "2025-12-04T02:17:52.292832", "MEAN_MOTION": 14.58236674, "ECCENTRICITY": 0.00461905, "INCLINATION": 73.9387, "RA_OF_ASC_NODE": 119.6526, "ARG_OF_PERICENTER": 195.886, "MEAN_ANOMALY": 164.0859, "EPHEMERIS_TYPE": 0, "CLASSIFICATION_TYPE": "U", "NORAD_CAT_ID": 40233, "ELEMENT_SET_NO": 999, "REV_AT_EPOCH": 59011, "BSTAR": 0.0029314151, "MEAN_MOTION_DOT": 0.00013736, "MEAN_MOTION_DDOT": 0}, "tle": {"line1": "1 40233U 93036BVN 25338.09574413  .00013736  00000+0  29314-2 0  9997", "line2": "2 40233  73.9387 119.6526 0046190 195.8860 164.0859 14.58236674590113"}}, "geometry": {"type": "Point", "coordinates": [117.59269186307982, 31.480715920781563]}}, {"type": "Feature", "properties": {"norad_id": 40236, "name": "COSMOS 2251 DEB", "group": "cosmos-2251-debris", "lat": 72.07764730539941, "lon": -98.8011548581753, "alt_km": 998.2194728420282, "timestamp": "2025-12-10T11:33:53.782309+00:00", "meta": {"OBJECT_NAME": "COSMOS 2251 DEB", "OBJECT_ID": "1993-036BVR", "EPOCH": "2025-12-07T17:52:23.026080", "MEAN_MOTION": 13.24639967, "ECCENTRICITY": 0.05366128, "INCLINATION": 73.5349, "RA_OF_ASC_NODE": 151.6266, "ARG_OF_PERICENTER": 32.3576, "MEAN_ANOMALY": 330.9258, "EPHEMERIS_TYPE": 0, "CLASSIFICATION_TYPE": "U", "NORAD_CAT_ID": 40236, "ELEMENT_SET_NO": 999, "REV_AT_EPOCH": 53558, "BSTAR": 0.0015786255, "MEAN_MOTION_DOT": 1.455e-05, "MEAN_MOTION_DDOT": 0}, "tle": {"line1": "1 40236U 93036BVR 25341.74471095  .00001455  00000+0  15786-2 0  9991", "line2": "2 40236  73.5349 151.6266 0536612  32.3576 330.9258 13.24639967535580"}}, "geometry": {"type": "Point", "coordinates": [-98.8011548581753, 72.07764730539941]}}, {"type": "Feature", "properties": {"norad_id": 40238, "name": "COSMOS 2251 DEB", "group": "cosmos-2251-debris", "lat": -6.41908897450309, "lon": -111.08363357612085, "alt_km": 1509.9142172189331, "timestamp": "2025-12-10T11:33:53.782319+00:00", "meta": {"OBJECT_NAME": "COSMOS 2251 DEB", "OBJECT_ID": "1993-036BVT", "EPOCH": "2025-12-09T21:58:52.794912", "MEAN_MOTION": 13.25105206, "ECCENTRICITY": 0.0549502, "INCLINATION": 73.9881, "RA_OF_ASC_NODE": 67.934, "ARG_OF_PERICENTER": 40.3773, "MEAN_ANOMALY": 323.6787, "EPHEMERIS_TYPE": 0, "CLASSIFICATION_TYPE": "U", "NORAD_CAT_ID": 40238, "ELEMENT_SET_NO": 999, "REV_AT_EPOCH": 53999, "BSTAR": 0.0016485, "MEAN_MOTION_DOT": 1.598e-05, "MEAN_MOTION_DDOT": 0}, "tle": {"line1": "1 40238U 93036BVT 25343.91588883  .00001598  00000+0  16485-2 0  9993", "line2": "2 40238  73.9881  67.9340 0549502  40.3773 323.6787 13.25105206539999"}}, "geometry": {"type": "Point", "coordinates": [-111.08363357612085, -6.41908897450309]}}, {"type": "Feature", "properties": {"norad_id": 40239, "name": "COSMOS 2251 DEB", "group": "cosmos-2251-debris", "lat": -39.4147161910173, "lon": -93.45035898894372, "alt_km": 675.3405646761112, "timestamp": "2025-12-10T11:33:53.782329+00:00", "meta": {"OBJECT_NAME": "COSMOS 2251 DEB", "OBJECT_ID": "1993-036BVU", "EPOCH": "2025-12-09T02:58:33.046176", "MEAN_MOTION": 14.61966821, "ECCENTRICITY": 0.00846673, "INCLINATION": 74.0321, "RA_OF_ASC_NODE": 282.759, "ARG_OF_PERICENTER": 35.0564, "MEAN_ANOMALY": 340.9261, "EPHEMERIS_TYPE": 0, "CLASSIFICATION_TYPE": "U", "NORAD_CAT_ID": 40239, "ELEMENT_SET_NO": 999, "REV_AT_EPOCH": 59558, "BSTAR": 0.00063514964, "MEAN_MOTION_DOT": 3.319e-05, "MEAN_MOTION_DDOT": 0}, "tle": {"line1": "1 40239U 93036BVU 25343.12399359  .00003319  00000+0  63515-3 0  9995", "line2": "2 40239  74.0321 282.7590 0084667  35.0564 340.9261 14.61966821595585"}}, "geometry": {"type": "Point", "coordinates": [-93.45035898894372, -39.4147161910173]}}]}